{
    "links": {
        "self": "http://www.neowsapp.com/rest/v1/neo/3623680?api_key=iIulBulltgU6a56xZRHN4H3l9WmuAYTsLGpBGhQ2"
    },
    "id": "3623680",
    "neo_reference_id": "3623680",
    "name": "(2013 AE53)",
    "designation": "2013 AE53",
    "nasa_jpl_url": "http://ssd.jpl.nasa.gov/sbdb.cgi?sstr=3623680",
    "absolute_magnitude_h": 25.9,
    "estimated_diameter": {
        "kilometers": {
            "estimated_diameter_min": 0.0175612318,
            "estimated_diameter_max": 0.0392681082
        },
        "meters": {
            "estimated_diameter_min": 17.561231848,
            "estimated_diameter_max": 39.2681081809
        },
        "miles": {
            "estimated_diameter_min": 0.0109120402,
            "estimated_diameter_max": 0.0244000636
        },
        "feet": {
            "estimated_diameter_min": 57.6155918963,
            "estimated_diameter_max": 128.8323800441
        }
    },
    "is_potentially_hazardous_asteroid": false,
    "close_approach_data": [
        {
            "close_approach_date": "2013-01-12",
            "close_approach_date_full": "2013-Jan-12 07:13",
            "epoch_date_close_approach": 1357974780000,
            "relative_velocity": {
                "kilometers_per_second": "8.129807754",
                "kilometers_per_hour": "29267.307914321",
                "miles_per_hour": "18185.5669648735"
            },
            "miss_distance": {
                "astronomical": "0.0440973185",
                "lunar": "17.1538568965",
                "kilometers": "6596864.920311595",
                "miles": "4099101.783606211"
            },
            "orbiting_body": "Earth"
        }
    ],
    "orbital_data": {
        "orbit_id": "5",
        "orbit_determination_date": "2017-04-06 08:47:19",
        "first_observation_date": "2013-01-09",
        "last_observation_date": "2013-01-12",
        "data_arc_in_days": 3,
        "observations_used": 23,
        "orbit_uncertainty": "7",
        "minimum_orbit_intersection": ".0440415",
        "jupiter_tisserand_invariant": "4.019",
        "epoch_osculation": "2459000.5",
        "eccentricity": ".4174386281936268",
        "semi_major_axis": "1.742310746857969",
        "inclination": "11.027560558916",
        "ascending_node_longitude": "106.8074392196854",
        "orbital_period": "840.0146301112979",
        "perihelion_distance": "1.015002938802565",
        "perihelion_argument": "19.1057812600097",
        "aphelion_distance": "2.469618554913374",
        "perihelion_time": "2458837.278295398806",
        "mean_anomaly": "69.95094079331039",
        "mean_motion": ".4285639643589323",
        "equinox": "J2000",
        "orbit_class": {
            "orbit_class_type": "APO",
            "orbit_class_description": "Near-Earth asteroid orbits which cross the Earth’s orbit similar to that of 1862 Apollo",
            "orbit_class_range": "a (semi-major axis) > 1.0 AU; q (perihelion) < 1.017 AU"
        }
    },
    "is_sentry_object": false
}